[{"OBJECT_NAME":"1998-067RC","OBJECT_ID":"1998-067RC","EPOCH":"2020-12-14T23:00:34.556256","MEAN_MOTION":15.55045612,"ECCENTRICITY":0.0005994,"INCLINATION":51.6379,"RA_OF_ASC_NODE":168.0015,"ARG_OF_PERICENTER":302.5053,"MEAN_ANOMALY":57.5358,"EPHEMERIS_TYPE":0,"CLASSIFICATION_TYPE":"U","NORAD_CAT_ID":45259,"ELEMENT_SET_NO":999,"REV_AT_EPOCH":4655,"BSTAR":0.00021582,"MEAN_MOTION_DOT":0.00014323,"MEAN_MOTION_DDOT":0},{"OBJECT_NAME":"CRYOCUBE","OBJECT_ID":"1998-067RD","EPOCH":"2020-12-14T11:40:34.231584","MEAN_MOTION":15.54997344,"ECCENTRICITY":0.0006665,"INCLINATION":51.638,"RA_OF_ASC_NODE":170.0995,"ARG_OF_PERICENTER":301.5905,"MEAN_ANOMALY":58.4434,"EPHEMERIS_TYPE":0,"CLASSIFICATION_TYPE":"U","NORAD_CAT_ID":45260,"ELEMENT_SET_NO":999,"REV_AT_EPOCH":4649,"BSTAR":0.00019957,"MEAN_MOTION_DOT":0.00013184,"MEAN_MOTION_DDOT":0},{"OBJECT_NAME":"AZTECHSAT-1","OBJECT_ID":"1998-067RE","EPOCH":"2020-12-14T21:59:05.311680","MEAN_MOTION":15.56313453,"ECCENTRICITY":0.0006318,"INCLINATION":51.6376,"RA_OF_ASC_NODE":166.967,"ARG_OF_PERICENTER":300.8016,"MEAN_ANOMALY":59.2353,"EPHEMERIS_TYPE":0,"CLASSIFICATION_TYPE":"U","NORAD_CAT_ID":45261,"ELEMENT_SET_NO":999,"REV_AT_EPOCH":4655,"BSTAR":0.00026257,"MEAN_MOTION_DOT":0.00018399,"MEAN_MOTION_DDOT":0},{"OBJECT_NAME":"RADSAT-U","OBJECT_ID":"1998-067RF","EPOCH":"2020-12-14T18:46:56.811936","MEAN_MOTION":15.53773649,"ECCENTRICITY":0.0005711,"INCLINATION":51.6397,"RA_OF_ASC_NODE":169.8431,"ARG_OF_PERICENTER":343.7215,"MEAN_ANOMALY":16.3591,"EPHEMERIS_TYPE":0,"CLASSIFICATION_TYPE":"U","NORAD_CAT_ID":45262,"ELEMENT_SET_NO":999,"REV_AT_EPOCH":4652,"BSTAR":0.00016039,"MEAN_MOTION_DOT":0.0001002,"MEAN_MOTION_DDOT":0},{"OBJECT_NAME":"QARMAN","OBJECT_ID":"1998-067RG","EPOCH":"2020-12-13T18:34:11.605152","MEAN_MOTION":15.54825156,"ECCENTRICITY":0.0005991,"INCLINATION":51.638,"RA_OF_ASC_NODE":174.3352,"ARG_OF_PERICENTER":293.5911,"MEAN_ANOMALY":66.4451,"EPHEMERIS_TYPE":0,"CLASSIFICATION_TYPE":"U","NORAD_CAT_ID":45263,"ELEMENT_SET_NO":999,"REV_AT_EPOCH":4639,"BSTAR":0.00021577,"MEAN_MOTION_DOT":0.00014201,"MEAN_MOTION_DDOT":0},{"OBJECT_NAME":"SORTIE","OBJECT_ID":"1998-067RH","EPOCH":"2020-12-14T18:53:44.648448","MEAN_MOTION":15.52290801,"ECCENTRICITY":0.0006799,"INCLINATION":51.6399,"RA_OF_ASC_NODE":171.3631,"ARG_OF_PERICENTER":314.218,"MEAN_ANOMALY":45.8251,"EPHEMERIS_TYPE":0,"CLASSIFICATION_TYPE":"U","NORAD_CAT_ID":45264,"ELEMENT_SET_NO":999,"REV_AT_EPOCH":4649,"BSTAR":8.7166e-5,"MEAN_MOTION_DOT":4.934e-5,"MEAN_MOTION_DDOT":0},{"OBJECT_NAME":"ICS-EF (ISS DEB)","OBJECT_ID":"1998-067RJ","EPOCH":"2020-12-15T00:27:17.628192","MEAN_MOTION":15.50862833,"ECCENTRICITY":0.0004815,"INCLINATION":51.6396,"RA_OF_ASC_NODE":172.1356,"ARG_OF_PERICENTER":316.7851,"MEAN_ANOMALY":43.276,"EPHEMERIS_TYPE":0,"CLASSIFICATION_TYPE":"U","NORAD_CAT_ID":45265,"ELEMENT_SET_NO":999,"REV_AT_EPOCH":4618,"BSTAR":6.7014e-5,"MEAN_MOTION_DOT":3.485e-5,"MEAN_MOTION_DDOT":0},{"OBJECT_NAME":"PROGRESS-MS 14","OBJECT_ID":"2020-026A","EPOCH":"2020-12-13T13:11:59.194752","MEAN_MOTION":15.49180997,"ECCENTRICITY":0.0001783,"INCLINATION":51.6445,"RA_OF_ASC_NODE":180.9789,"ARG_OF_PERICENTER":128.1963,"MEAN_ANOMALY":279.5916,"EPHEMERIS_TYPE":0,"CLASSIFICATION_TYPE":"U","NORAD_CAT_ID":45595,"ELEMENT_SET_NO":999,"REV_AT_EPOCH":3604,"BSTAR":2.5206e-5,"MEAN_MOTION_DOT":9.48e-6,"MEAN_MOTION_DDOT":0},{"OBJECT_NAME":"G-SAT","OBJECT_ID":"1998-067RK","EPOCH":"2020-12-14T23:20:07.910592","MEAN_MOTION":15.53375469,"ECCENTRICITY":0.0004046,"INCLINATION":51.639,"RA_OF_ASC_NODE":170.3484,"ARG_OF_PERICENTER":12.8825,"MEAN_ANOMALY":347.2268,"EPHEMERIS_TYPE":0,"CLASSIFICATION_TYPE":"U","NORAD_CAT_ID":45597,"ELEMENT_SET_NO":999,"REV_AT_EPOCH":3589,"BSTAR":0.00015772,"MEAN_MOTION_DOT":9.697e-5,"MEAN_MOTION_DDOT":0},{"OBJECT_NAME":"QUETZAL-1","OBJECT_ID":"1998-067RL","EPOCH":"2020-12-14T19:05:08.532096","MEAN_MOTION":15.53692841,"ECCENTRICITY":0.0001989,"INCLINATION":51.6386,"RA_OF_ASC_NODE":171.4125,"ARG_OF_PERICENTER":51.2886,"MEAN_ANOMALY":308.8282,"EPHEMERIS_TYPE":0,"CLASSIFICATION_TYPE":"U","NORAD_CAT_ID":45598,"ELEMENT_SET_NO":999,"REV_AT_EPOCH":3579,"BSTAR":0.00020759,"MEAN_MOTION_DOT":0.00013071,"MEAN_MOTION_DDOT":0},{"OBJECT_NAME":"RED-EYE 2 (MERLOT)","OBJECT_ID":"1998-067RM","EPOCH":"2020-12-14T00:13:48.769536","MEAN_MOTION":15.5116959,"ECCENTRICITY":7.54e-5,"INCLINATION":51.6403,"RA_OF_ASC_NODE":177.4062,"ARG_OF_PERICENTER":9.2751,"MEAN_ANOMALY":350.8252,"EPHEMERIS_TYPE":0,"CLASSIFICATION_TYPE":"U","NORAD_CAT_ID":45800,"ELEMENT_SET_NO":999,"REV_AT_EPOCH":2788,"BSTAR":7.43e-5,"MEAN_MOTION_DOT":3.962e-5,"MEAN_MOTION_DDOT":0},{"OBJECT_NAME":"RED-EYE 3 (CABERNET)","OBJECT_ID":"1998-067RN","EPOCH":"2020-12-14T18:47:48.734016","MEAN_MOTION":15.51172081,"ECCENTRICITY":8.01e-5,"INCLINATION":51.6402,"RA_OF_ASC_NODE":173.573,"ARG_OF_PERICENTER":343.2207,"MEAN_ANOMALY":16.8756,"EPHEMERIS_TYPE":0,"CLASSIFICATION_TYPE":"U","NORAD_CAT_ID":45809,"ELEMENT_SET_NO":999,"REV_AT_EPOCH":2698,"BSTAR":6.9036e-5,"MEAN_MOTION_DOT":3.649e-5,"MEAN_MOTION_DDOT":0},{"OBJECT_NAME":"DEMI","OBJECT_ID":"1998-067RP","EPOCH":"2020-12-14T22:59:41.651808","MEAN_MOTION":15.53013601,"ECCENTRICITY":0.00021,"INCLINATION":51.6397,"RA_OF_ASC_NODE":171.7485,"ARG_OF_PERICENTER":237.2193,"MEAN_ANOMALY":122.8595,"EPHEMERIS_TYPE":0,"CLASSIFICATION_TYPE":"U","NORAD_CAT_ID":45916,"ELEMENT_SET_NO":999,"REV_AT_EPOCH":2401,"BSTAR":0.00014464,"MEAN_MOTION_DOT":8.733e-5,"MEAN_MOTION_DDOT":0},{"OBJECT_NAME":"TECHEDSAT 10","OBJECT_ID":"1998-067RQ","EPOCH":"2020-12-14T05:18:07.121664","MEAN_MOTION":15.63408356,"ECCENTRICITY":0.0005569,"INCLINATION":51.6354,"RA_OF_ASC_NODE":171.3168,"ARG_OF_PERICENTER":247.088,"MEAN_ANOMALY":112.9527,"EPHEMERIS_TYPE":0,"CLASSIFICATION_TYPE":"U","NORAD_CAT_ID":45917,"ELEMENT_SET_NO":999,"REV_AT_EPOCH":2390,"BSTAR":0.00088549,"MEAN_MOTION_DOT":0.0008367,"MEAN_MOTION_DDOT":0},{"OBJECT_NAME":"PROGRESS-MS 15","OBJECT_ID":"2020-050A","EPOCH":"2020-12-13T13:11:59.194752","MEAN_MOTION":15.49180997,"ECCENTRICITY":0.0001783,"INCLINATION":51.6445,"RA_OF_ASC_NODE":180.9789,"ARG_OF_PERICENTER":128.1963,"MEAN_ANOMALY":279.5916,"EPHEMERIS_TYPE":0,"CLASSIFICATION_TYPE":"U","NORAD_CAT_ID":45937,"ELEMENT_SET_NO":999,"REV_AT_EPOCH":2215,"BSTAR":2.5206e-5,"MEAN_MOTION_DOT":9.48e-6,"MEAN_MOTION_DDOT":0},{"OBJECT_NAME":"CYGNUS NG-14","OBJECT_ID":"2020-069A","EPOCH":"2020-12-13T13:11:59.194752","MEAN_MOTION":15.49180997,"ECCENTRICITY":0.0001783,"INCLINATION":51.6445,"RA_OF_ASC_NODE":180.9789,"ARG_OF_PERICENTER":128.1963,"MEAN_ANOMALY":279.5916,"EPHEMERIS_TYPE":0,"CLASSIFICATION_TYPE":"U","NORAD_CAT_ID":46530,"ELEMENT_SET_NO":999,"REV_AT_EPOCH":1108,"BSTAR":2.5206e-5,"MEAN_MOTION_DOT":9.48e-6,"MEAN_MOTION_DDOT":0},{"OBJECT_NAME":"SOYUZ-MS 17","OBJECT_ID":"2020-072A","EPOCH":"2020-12-13T13:11:59.194752","MEAN_MOTION":15.49180997,"ECCENTRICITY":0.0001783,"INCLINATION":51.6445,"RA_OF_ASC_NODE":180.9789,"ARG_OF_PERICENTER":128.1963,"MEAN_ANOMALY":279.5916,"EPHEMERIS_TYPE":0,"CLASSIFICATION_TYPE":"U","NORAD_CAT_ID":46613,"ELEMENT_SET_NO":999,"REV_AT_EPOCH":935,"BSTAR":2.5206e-5,"MEAN_MOTION_DOT":9.48e-6,"MEAN_MOTION_DDOT":0}]
